0 COSMOS 2251 DEB
1 37866U 93036BPD 13282.49435081  .00034177  00000-0  34337-2 0  2011
2 37866 073.9669 314.8486 0076977 137.5025 223.2151 14.88886670157943
0 COSMOS 2251 DEB
1 37866U 93036BPD 13283.43503938  .00030925  00000-0  31064-2 0  2025
2 37866 073.9670 312.9614 0076830 135.3532 225.3871 14.88924303158088
0 COSMOS 2251 DEB
1 37866U 93036BPD 13283.77100325  .00021956  00000-0  22057-2 0  2021
2 37866 073.9648 312.2888 0078033 135.0092 225.7949 14.88920966158131
0 COSMOS 2251 DEB
1 37866U 93036BPD 13286.05540027  .00023618  00000-0  23696-2 0  2041
2 37866 073.9677 307.7074 0076778 129.4553 231.3455 14.89028316158473
0 COSMOS 2251 DEB
1 37866U 93036BPD 13287.46628602  .00024958  00000-0  25019-2 0  2053
2 37866 073.9667 304.8745 0076335 126.1073 234.7207 14.89076756158681
0 COSMOS 2251 DEB
1 37866U 93036BPD 13287.73502012  .00032873  00000-0  32887-2 0  2066
2 37866 073.9664 304.3349 0076350 125.5080 235.3255 14.89098785158722
0 COSMOS 2251 DEB
1 37866U 93036BPD 13290.35500665  .00037352  00000-0  37211-2 0  2074
2 37866 073.9647 299.0733 0076173 119.4771 241.4037 14.89245201159119
0 COSMOS 2251 DEB
1 37866U 93036BPD 13291.69849466  .00030962  00000-0  30817-2 0  2083
2 37866 073.9652 296.3769 0076186 116.5246 244.3773 14.89322117159316
0 COSMOS 2251 DEB
1 37866U 93036BPD 13293.31059573  .00031829  00000-0  31617-2 0  2099
2 37866 073.9658 293.1409 0076089 112.7582 248.1662 14.89400612159553
0 COSMOS 2251 DEB
1 37866U 93036BPD 13295.32559949  .00039765  00000-0  39350-2 0  2105
2 37866 073.9659 289.0942 0076048 108.2321 252.7156 14.89502044159850
